{"fetched_at":"2026-03-29T02:12:04Z","count":15717,"tles":[{"name":"PIESAT-2 11","line1":"1 62335U 24241C   26087.08167493 -.00002715  00000+0 -14856-3 0  9996","line2":"2 62335  97.5235  35.5815 0001616  88.2563 271.8854 15.13416721 70547","category":"Other"}]}